{
"type": "FeatureCollection",
"features": [
    {
    "type": "Feature",
    "properties": { "name": "Java" },
    "geometry": {
    "type": "Polygon",
    "coordinates": [
        [
        [105.1, -5.9],
        [106.0, -5.9],
        [107.0, -6.0],
        [108.5, -6.3],
        [109.0, -6.8],
        [110.5, -6.4],
        [111.5, -6.6],
        [112.8, -6.8],
        [114.2, -7.7],
        [114.6, -8.7],
        [114.3, -8.8],
        [113.8, -8.4],
        [112.5, -8.3],
        [111.0, -8.3],
        [109.0, -7.7],
        [108.0, -7.7],
        [106.5, -7.5],
        [105.2, -6.8],
        [105.1, -5.9]
        ]
    ]
    }
}
]
}